GLOBALSTAR M023         
1 25621U 99004A   24217.19189656 -.00000125  00000+0 -11706-3 0  9996
2 25621  52.0116 298.6795 0010573 146.9149 232.2611 12.62463784175787
GLOBALSTAR M040         
1 25622U 99004B   24216.67664828 -.00000067  00000+0  20654-3 0  9994
2 25622  51.9927 303.9311 0001138  88.3890  63.0278 12.61978010175162
GLOBALSTAR M038         
1 25624U 99004D   24216.61977958 -.00000040  00000+0  45484-3 0  9990
2 25624  51.9961 266.1161 0002116 118.8193  17.7814 12.32504263163215
GLOBALSTAR M022         
1 25649U 99012A   24217.06911242 -.00000087  00000+0  75929-6 0  9991
2 25649  52.0043  72.9637 0001665 266.9419 260.9454 12.02485716138302
GLOBALSTAR M041         
1 25650U 99012B   24216.72972959 -.00000014  00000+0  91987-3 0  9996
2 25650  52.0033 305.6608 0002893  68.6000 291.5145 11.96657532140279
